ONEWEB-0216             
1 48801U 21045AL  24030.61539082 -.00000283  00000+0 -78477-3 0  9996
2 48801  87.8957  72.1065 0002142 103.4707 256.6662 13.15547386130100
ONEWEB-0239             
1 48802U 21045AM  24030.62016560  .00000006  00000+0 -18331-4 0  9995
2 48802  87.8964  72.0692 0002659  81.4539 278.6893 13.15547661130145
ONEWEB-0249             
1 48967U 21060A   24030.93883023  .00000007  00000+0 -15779-4 0  9998
2 48967  87.9040  41.5690 0001806  90.6865 269.4472 13.16593961125363
ONEWEB-0250             
1 48968U 21060B   24031.47556326 -.00000164  00000+0 -46252-3 0  9996
2 48968  87.9042  41.4460 0002039  84.0855 276.0508 13.16594995126706
ONEWEB-0252             
1 48970U 21060D   24031.50248004  .00000044  00000+0  82357-4 0  9996
2 48970  87.9044  41.4496 0001938  91.1858 268.9495 13.16593268126773
ONEWEB-0253             
1 48971U 21060E   24030.95941202 -.00000219  00000+0 -60607-3 0  9994
2 48971  87.9041  41.5730 0002186  92.4246 267.7135 13.16594061125346
ONEWEB-0254             
1 48972U 21060F   24030.96890675 -.00000262  00000+0 -71982-3 0  9999
2 48972  87.9043  41.5475 0002241  95.3475 264.7912 13.16593519125340
ONEWEB-0255             
1 48973U 21060G   24030.93091527 -.00000203  00000+0 -56396-3 0  9993
2 48973  87.9040  41.5893 0001852  89.2594 270.8749 13.16593666125410
